GLOBALSTAR M057         
1 25943U 99058A   25237.88735321 -.00000119  00000+0 -23806-3 0  9994
2 25943  51.9979 150.3951 0002544 143.9072 216.1950 12.24826840175475
GLOBALSTAR M059         
1 25944U 99058B   25237.83513596 -.00000016  00000+0  86570-3 0  9990
2 25944  52.0042  18.7517 0001281  95.6508  71.7212 11.99983016582409
GLOBALSTAR M056         
1 25945U 99058C   25237.68749157 -.00000105  00000+0 -20854-3 0  9991
2 25945  51.9989  19.3277 0000641  17.7324 355.6535 12.04779374171007
GLOBALSTAR M031         
1 25946U 99058D   25237.55197525 -.00000105  00000+0 -15075-3 0  9993
2 25946  51.9951 267.8776 0001141 321.9682 159.7959 12.16040293172989
GLOBALSTAR M039         
1 25961U 99062A   25237.76421577 -.00000103  00000+0  26909-5 0  9992
2 25961  51.9849  56.7964 0003186 128.0953 232.0201 12.62330943189005
GLOBALSTAR M034         
1 25962U 99062B   25237.37797450 -.00000075  00000+0  98109-4 0  9994
2 25962  51.9852 191.5300 0013796 171.4430 337.8033 11.79448103146557
GLOBALSTAR M029         
1 25963U 99062C   25237.84996909 -.00000064  00000+0  27214-3 0  9993
2 25963  51.9787 266.6917 0002468 252.4583 279.0585 11.99900109177482
GLOBALSTAR M061         
1 25964U 99062D   25237.67744185 -.00000107  00000+0 -44639-3 0  9991
2 25964  51.9825  15.7095 0006735  96.1298 277.2241 11.76775382129364
